[
  {
    "spaceTrack": {
      "CCSDS_OMM_VERS": "2.0",
      "COMMENT": "GENERATED VIA SPACE-TRACK.ORG API",
      "CREATION_DATE": "2022-02-12T08:06:11",
      "ORIGINATOR": "18 SPCS",
      "OBJECT_NAME": "STARLINK-1709",
      "OBJECT_ID": "2020-070AF",
      "CENTER_NAME": "EARTH",
      "REF_FRAME": "TEME",
      "TIME_SYSTEM": "UTC",
      "MEAN_ELEMENT_THEORY": "SGP4",
      "EPOCH": "2022-02-12T04:36:17.629344",
      "MEAN_MOTION": 15.06423551,
      "ECCENTRICITY": 0.000157,
      "INCLINATION": 53.0553,
      "RA_OF_ASC_NODE": 354.7766,
      "ARG_OF_PERICENTER": 69.8813,
      "MEAN_ANOMALY": 290.2344,
      "EPHEMERIS_TYPE": 0,
      "CLASSIFICATION_TYPE": "U",
      "NORAD_CAT_ID": 46561,
      "ELEMENT_SET_NO": 999,
      "REV_AT_EPOCH": 7567,
      "BSTAR": 0.00025441,
      "MEAN_MOTION_DOT": 0.00003512,
      "MEAN_MOTION_DDOT": 0,
      "SEMIMAJOR_AXIS": 6925.276,
      "PERIOD": 95.591,
      "APOAPSIS": 548.229,
      "PERIAPSIS": 546.054,
      "OBJECT_TYPE": "PAYLOAD",
      "RCS_SIZE": "LARGE",
      "COUNTRY_CODE": "US",
      "LAUNCH_DATE": "2020-10-06",
      "SITE": "AFETR",
      "DECAY_DATE": null,
      "DECAYED": 0,
      "FILE": 3298242,
      "GP_ID": 195768019,
      "TLE_LINE0": "0 STARLINK-1709",
      "TLE_LINE1":
        "1 46561U 20070AF  22043.19187071  .00003512  00000-0  25441-3 0  9996",
      "TLE_LINE2":
        "2 46561  53.0553 354.7766 0001570  69.8813 290.2344 15.06423551 75672"
    },
    "height_km": 552.5960900315604,
    "latitude": 52.682767886244356,
    "launch": "5ef6a2090059c33cee4a828b",
    "longitude": 92.62730863271759,
    "velocity_kms": 7.59235161937791,
    "version": "v1.0"
  },
  {
    "spaceTrack": {
      "CCSDS_OMM_VERS": "2.0",
      "COMMENT": "GENERATED VIA SPACE-TRACK.ORG API",
      "CREATION_DATE": "2022-02-11T22:56:11",
      "ORIGINATOR": "18 SPCS",
      "OBJECT_NAME": "STARLINK-1712",
      "OBJECT_ID": "2020-070BB",
      "CENTER_NAME": "EARTH",
      "REF_FRAME": "TEME",
      "TIME_SYSTEM": "UTC",
      "MEAN_ELEMENT_THEORY": "SGP4",
      "EPOCH": "2022-02-11T14:03:50.249664",
      "MEAN_MOTION": 15.06418601,
      "ECCENTRICITY": 0.0001587,
      "INCLINATION": 53.0593,
      "RA_OF_ASC_NODE": 352.4813,
      "ARG_OF_PERICENTER": 62.3866,
      "MEAN_ANOMALY": 297.7284,
      "EPHEMERIS_TYPE": 0,
      "CLASSIFICATION_TYPE": "U",
      "NORAD_CAT_ID": 46581,
      "ELEMENT_SET_NO": 999,
      "REV_AT_EPOCH": 7564,
      "BSTAR": 0.000068699,
      "MEAN_MOTION_DOT": 0.00000742,
      "MEAN_MOTION_DDOT": 0,
      "SEMIMAJOR_AXIS": 6925.292,
      "PERIOD": 95.591,
      "APOAPSIS": 548.256,
      "PERIAPSIS": 546.058,
      "OBJECT_TYPE": "PAYLOAD",
      "RCS_SIZE": "LARGE",
      "COUNTRY_CODE": "US",
      "LAUNCH_DATE": "2020-10-06",
      "SITE": "AFETR",
      "DECAY_DATE": null,
      "DECAYED": 0,
      "FILE": 3297915,
      "GP_ID": 195760602,
      "TLE_LINE0": "0 STARLINK-1712",
      "TLE_LINE1":
        "1 46581U 20070BB  22042.58599826  .00000742  00000-0  68699-4 0  9990",
      "TLE_LINE2":
        "2 46581  53.0593 352.4813 0001587  62.3866 297.7284 15.06418601 75642"
    },
    "height_km": 548.3097906585062,
    "latitude": 27.939476307218623,
    "launch": "5ef6a2090059c33cee4a828b",
    "longitude": 143.1144016490074,
    "velocity_kms": 7.591703450512643,
    "version": "v1.0"
  },
  {
    "spaceTrack": {
      "CCSDS_OMM_VERS": "2.0",
      "COMMENT": "GENERATED VIA SPACE-TRACK.ORG API",
      "CREATION_DATE": "2022-02-12T07:36:11",
      "ORIGINATOR": "18 SPCS",
      "OBJECT_NAME": "STARLINK-2693",
      "OBJECT_ID": "2021-040AK",
      "CENTER_NAME": "EARTH",
      "REF_FRAME": "TEME",
      "TIME_SYSTEM": "UTC",
      "MEAN_ELEMENT_THEORY": "SGP4",
      "EPOCH": "2022-02-12T05:34:01.735392",
      "MEAN_MOTION": 15.06421471,
      "ECCENTRICITY": 0.0001836,
      "INCLINATION": 53.0559,
      "RA_OF_ASC_NODE": 19.5808,
      "ARG_OF_PERICENTER": 53.5066,
      "MEAN_ANOMALY": 306.6092,
      "EPHEMERIS_TYPE": 0,
      "CLASSIFICATION_TYPE": "U",
      "NORAD_CAT_ID": 48461,
      "ELEMENT_SET_NO": 999,
      "REV_AT_EPOCH": 4379,
      "BSTAR": 0.00017507,
      "MEAN_MOTION_DOT": 0.00002328,
      "MEAN_MOTION_DDOT": 0,
      "SEMIMAJOR_AXIS": 6925.283,
      "PERIOD": 95.591,
      "APOAPSIS": 548.419,
      "PERIAPSIS": 545.876,
      "OBJECT_TYPE": "PAYLOAD",
      "RCS_SIZE": "LARGE",
      "COUNTRY_CODE": "US",
      "LAUNCH_DATE": "2021-05-09",
      "SITE": "AFETR",
      "DECAY_DATE": null,
      "DECAYED": 0,
      "FILE": 3298157,
      "GP_ID": 195766197,
      "TLE_LINE0": "0 STARLINK-2693",
      "TLE_LINE1": "1 48461U 21040AK  22043.23196453  .00002328  00000-0  17507-3 0  9992",
      "TLE_LINE2": "2 48461  53.0559  19.5808 0001836  53.5066 306.6092 15.06421471 43796"
    },
    "height_km": 563.0298910522415,
    "latitude": -43.57221275012575,
    "launch": "6079bd1c9a06446e8c61bf76",
    "longitude": -118.16762404539273,
    "velocity_kms": 7.578883283602074,
    "version": "v1.0"
  }, 
  {
    "spaceTrack": {
      "CCSDS_OMM_VERS": "2.0",
      "COMMENT": "GENERATED VIA SPACE-TRACK.ORG API",
      "CREATION_DATE": "2022-02-12T09:18:10",
      "ORIGINATOR": "18 SPCS",
      "OBJECT_NAME": "STARLINK-1412",
      "OBJECT_ID": "2020-035BC",
      "CENTER_NAME": "EARTH",
      "REF_FRAME": "TEME",
      "TIME_SYSTEM": "UTC",
      "MEAN_ELEMENT_THEORY": "SGP4",
      "EPOCH": "2022-02-11T20:36:37.699488",
      "MEAN_MOTION": 15.06420668,
      "ECCENTRICITY": 0.0001518,
      "INCLINATION": 53.053,
      "RA_OF_ASC_NODE": 231.2648,
      "ARG_OF_PERICENTER": 73.7529,
      "MEAN_ANOMALY": 286.3627,
      "EPHEMERIS_TYPE": 0,
      "CLASSIFICATION_TYPE": "U",
      "NORAD_CAT_ID": 45707,
      "ELEMENT_SET_NO": 999,
      "REV_AT_EPOCH": 9505,
      "BSTAR": 0.00031042,
      "MEAN_MOTION_DOT": 0.00004348,
      "MEAN_MOTION_DDOT": 0,
      "SEMIMAJOR_AXIS": 6925.285,
      "PERIOD": 95.591,
      "APOAPSIS": 548.201,
      "PERIAPSIS": 546.099,
      "OBJECT_TYPE": "PAYLOAD",
      "RCS_SIZE": "LARGE",
      "COUNTRY_CODE": "US",
      "LAUNCH_DATE": "2020-06-04",
      "SITE": "AFETR",
      "DECAY_DATE": null,
      "DECAYED": 0,
      "FILE": 3298257,
      "GP_ID": 195787599,
      "TLE_LINE0": "0 STARLINK-1412",
      "TLE_LINE1": "1 45707U 20035BC  22042.85876967  .00004348  00000-0  31042-3 0  9991",
      "TLE_LINE2": "2 45707  53.0530 231.2648 0001518  73.7529 286.3627 15.06420668 95056"
    },
    "launch": "5eb87d45ffd86e000604b387",
    "version": "v1.0",
    "height_km": 552.2551907898787,
    "latitude": 50.97106487686628,
    "longitude": -20.836265958246347,
    "velocity_kms": 7.592346795687436
  },
  {
    "spaceTrack": {
      "CCSDS_OMM_VERS": "2.0",
      "COMMENT": "GENERATED VIA SPACE-TRACK.ORG API",
      "CREATION_DATE": "2022-02-12T07:16:12",
      "ORIGINATOR": "18 SPCS",
      "OBJECT_NAME": "STARLINK-1829",
      "OBJECT_ID": "2020-073BJ",
      "CENTER_NAME": "EARTH",
      "REF_FRAME": "TEME",
      "TIME_SYSTEM": "UTC",
      "MEAN_ELEMENT_THEORY": "SGP4",
      "EPOCH": "2022-02-12T05:34:41.597760",
      "MEAN_MOTION": 15.06403831,
      "ECCENTRICITY": 0.0002374,
      "INCLINATION": 53.0555,
      "RA_OF_ASC_NODE": 74.5957,
      "ARG_OF_PERICENTER": 263.8072,
      "MEAN_ANOMALY": 96.2646,
      "EPHEMERIS_TYPE": 0,
      "CLASSIFICATION_TYPE": "U",
      "NORAD_CAT_ID": 46726,
      "ELEMENT_SET_NO": 999,
      "REV_AT_EPOCH": 7356,
      "BSTAR": 0.0002632,
      "MEAN_MOTION_DOT": 0.00003641,
      "MEAN_MOTION_DDOT": 0,
      "SEMIMAJOR_AXIS": 6925.337,
      "PERIOD": 95.592,
      "APOAPSIS": 548.846,
      "PERIAPSIS": 545.558,
      "OBJECT_TYPE": "PAYLOAD",
      "RCS_SIZE": "LARGE",
      "COUNTRY_CODE": "US",
      "LAUNCH_DATE": "2020-10-18",
      "SITE": "AFETR",
      "DECAY_DATE": null,
      "DECAYED": 0,
      "FILE": 3298132,
      "GP_ID": 195765307,
      "TLE_LINE0": "0 STARLINK-1829",
      "TLE_LINE1": "1 46726U 20073BJ  22043.23242590  .00003641  00000-0  26320-3 0  9995",
      "TLE_LINE2": "2 46726  53.0555  74.5957 0002374 263.8072  96.2646 15.06403831 73566"
    },
    "height_km": 559.7260312482576,
    "latitude": -42.0176974231434,
    "launch": "5ef6a2bf0059c33cee4a828c",
    "longitude": -66.1377878973038,
    "velocity_kms": 7.58217784174683,
    "version": "v1.0"
  }
]
